DryMass, ErgolMass, DV, ManeuverType, ISP
0
0
0
1 13601U 23001EAE 25008.61363831  .00030938  00000+0  12818-2 0  9996
2 13601 097.8059 320.0251 0033002 262.6847 276.8604 06.60498284914329

